0 CZ-4 DEB
1 29042U 04035J   13281.83501734  .00000930  00000-0  92035-4 0  7583
2 29042 097.7876 283.5133 0009800 109.4192 250.8138 14.94249151447070
0 CZ-4 DEB
1 29042U 04035J   13283.24127042  .00000974  00000-0  96079-4 0  7597
2 29042 097.7862 284.9093 0010757 109.5048 250.7502 14.94253237447286
0 CZ-4 DEB
1 29042U 04035J   13285.25019521  .00000996  00000-0  98105-4 0  7600
2 29042 097.7858 286.8983 0009570 102.3053 257.9260 14.94258222447580
0 CZ-4 DEB
1 29042U 04035J   13288.26357750  .00001033  00000-0  10157-3 0  7617
2 29042 097.7850 289.8839 0009157 088.6884 271.5436 14.94265730448034
0 CZ-4 DEB
1 29042U 04035J   13289.20106566  .00001095  00000-0  10729-3 0  7623
2 29042 097.7838 290.8089 0009655 085.6909 274.5540 14.94269742448178
0 CZ-4 DEB
1 29042U 04035J   13291.20996957  .00001138  00000-0  11132-3 0  7635
2 29042 097.7845 292.8010 0009515 076.4221 283.8181 14.94275699448477
0 CZ-4 DEB
1 29042U 04035J   13293.75456833  .00001188  00000-0  11589-3 0  7643
2 29042 097.7866 295.3284 0010004 070.7859 289.4611 14.94283467448854
0 CZ-4 DEB
1 29042U 04035J   13294.82597195  .00001226  00000-0  11942-3 0  7656
2 29042 097.7878 296.3911 0010629 072.0530 288.2061 14.94287384449016
